{
    "links": {
        "self": "http://www.neowsapp.com/rest/v1/neo/3799838?api_key=iIulBulltgU6a56xZRHN4H3l9WmuAYTsLGpBGhQ2"
    },
    "id": "3799838",
    "neo_reference_id": "3799838",
    "name": "(2018 EK2)",
    "designation": "2018 EK2",
    "nasa_jpl_url": "http://ssd.jpl.nasa.gov/sbdb.cgi?sstr=3799838",
    "absolute_magnitude_h": 25.8,
    "estimated_diameter": {
        "kilometers": {
            "estimated_diameter_min": 0.0183888672,
            "estimated_diameter_max": 0.0411187571
        },
        "meters": {
            "estimated_diameter_min": 18.388867207,
            "estimated_diameter_max": 41.1187571041
        },
        "miles": {
            "estimated_diameter_min": 0.0114263088,
            "estimated_diameter_max": 0.0255500032
        },
        "feet": {
            "estimated_diameter_min": 60.3309310875,
            "estimated_diameter_max": 134.9040630575
        }
    },
    "is_potentially_hazardous_asteroid": false,
    "close_approach_data": [
        {
            "close_approach_date": "2005-02-17",
            "close_approach_date_full": "2005-Feb-17 23:42",
            "epoch_date_close_approach": 1108683720000,
            "relative_velocity": {
                "kilometers_per_second": "2.8495771727",
                "kilometers_per_hour": "10258.477821707",
                "miles_per_hour": "6374.2191776046"
            },
            "miss_distance": {
                "astronomical": "0.0926880425",
                "lunar": "36.0556485325",
                "kilometers": "13865933.732469475",
                "miles": "8615891.697149755"
            },
            "orbiting_body": "Earth"
        },
        {
            "close_approach_date": "2012-10-17",
            "close_approach_date_full": "2012-Oct-17 09:40",
            "epoch_date_close_approach": 1350466800000,
            "relative_velocity": {
                "kilometers_per_second": "6.981758964",
                "kilometers_per_hour": "25134.3322703463",
                "miles_per_hour": "15617.4966265382"
            },
            "miss_distance": {
                "astronomical": "0.4996045212",
                "lunar": "194.3461587468",
                "kilometers": "74739772.213889844",
                "miles": "46441140.9493900872"
            },
            "orbiting_body": "Earth"
        },
        {
            "close_approach_date": "2018-02-18",
            "close_approach_date_full": "2018-Feb-18 00:56",
            "epoch_date_close_approach": 1518915360000,
            "relative_velocity": {
                "kilometers_per_second": "2.8934684199",
                "kilometers_per_hour": "10416.4863116875",
                "miles_per_hour": "6472.3995085038"
            },
            "miss_distance": {
                "astronomical": "0.0922519077",
                "lunar": "35.8859920953",
                "kilometers": "13800688.895356599",
                "miles": "8575350.4352911062"
            },
            "orbiting_body": "Earth"
        },
        {
            "close_approach_date": "2031-02-18",
            "close_approach_date_full": "2031-Feb-18 03:35",
            "epoch_date_close_approach": 1929152100000,
            "relative_velocity": {
                "kilometers_per_second": "2.9602114364",
                "kilometers_per_hour": "10656.7611709986",
                "miles_per_hour": "6621.6969620574"
            },
            "miss_distance": {
                "astronomical": "0.0930041979",
                "lunar": "36.1786329831",
                "kilometers": "13913229.906898473",
                "miles": "8645280.1771780074"
            },
            "orbiting_body": "Earth"
        }
    ],
    "orbital_data": {
        "orbit_id": "5",
        "orbit_determination_date": "2018-03-22 06:23:11",
        "first_observation_date": "2018-03-07",
        "last_observation_date": "2018-03-19",
        "data_arc_in_days": 12,
        "observations_used": 24,
        "orbit_uncertainty": "7",
        "minimum_orbit_intersection": ".0922127",
        "jupiter_tisserand_invariant": "4.765",
        "epoch_osculation": "2459000.5",
        "eccentricity": ".2238381320324113",
        "semi_major_axis": "1.382436210450971",
        "inclination": "4.562995298999427",
        "ascending_node_longitude": "348.9818568861704",
        "orbital_period": "593.6986729067318",
        "perihelion_distance": "1.07299427144966",
        "perihelion_argument": "149.5908013076414",
        "aphelion_distance": "1.691878149452281",
        "perihelion_time": "2458750.629341587508",
        "mean_anomaly": "151.5136232124081",
        "mean_motion": ".6063682073558465",
        "equinox": "J2000",
        "orbit_class": {
            "orbit_class_type": "AMO",
            "orbit_class_description": "Near-Earth asteroid orbits similar to that of 1221 Amor",
            "orbit_class_range": "1.017 AU < q (perihelion) < 1.3 AU"
        }
    },
    "is_sentry_object": false
}